[
  {
    "OBJECT_NAME": "STARLINK-1675",
    "OBJECT_ID": "20070AV",
    "EPOCH": "2025-11-11T08:00:03.000384",
    "MEAN_MOTION": 15.92304594,
    "ECCENTRICITY": 0.0007299,
    "INCLINATION": 53.0362,
    "RA_OF_ASC_NODE": 230.4952,
    "ARG_OF_PERICENTER": 124.5203,
    "MEAN_ANOMALY": 40.1506,
    "EPHEMERIS_TYPE": 0,
    "CLASSIFICATION_TYPE": "U",
    "NORAD_CAT_ID": 46575,
    "ELEMENT_SET_NO": 999,
    "REV_AT_EPOCH": 600,
    "BSTAR": 0.0015392000000000001,
    "MEAN_MOTION_DOT": 0.00529047,
    "MEAN_MOTION_DDOT": 0.00012101000000000001,
    "TLE_LINE1": "1 46575U 20070AV  25315.33336806  .00529047  12101-3  15392-2 0  9991",
    "TLE_LINE2": "2 46575  53.0362 230.4952 0007299 124.5203  40.1506 15.92304594  6001",
    "COMMENT": "Grouped by shell and plane from TLE"
  },
  {
    "OBJECT_NAME": "STARLINK-11407 [DTC]",
    "OBJECT_ID": "24209A",
    "EPOCH": "2025-11-11T05:14:03.768288",
    "MEAN_MOTION": 15.698081,
    "ECCENTRICITY": 0.0003412,
    "INCLINATION": 53.1573,
    "RA_OF_ASC_NODE": 235.0616,
    "ARG_OF_PERICENTER": 173.2419,
    "MEAN_ANOMALY": 186.8646,
    "EPHEMERIS_TYPE": 0,
    "CLASSIFICATION_TYPE": "U",
    "NORAD_CAT_ID": 61939,
    "ELEMENT_SET_NO": 999,
    "REV_AT_EPOCH": 5813,
    "BSTAR": 0.0017675,
    "MEAN_MOTION_DOT": 0.00220244,
    "MEAN_MOTION_DDOT": 0.0,
    "TLE_LINE1": "1 61939U 24209A   25315.21809917  .00220244  00000+0  17675-2 0  9999",
    "TLE_LINE2": "2 61939  53.1573 235.0616 0003412 173.2419 186.8646 15.69808100 58138",
    "COMMENT": "Grouped by shell and plane from TLE"
  },
  {
    "OBJECT_NAME": "STARLINK-11337 [DTC]",
    "OBJECT_ID": "24209B",
    "EPOCH": "2025-11-11T06:38:41.303616",
    "MEAN_MOTION": 15.69794227,
    "ECCENTRICITY": 0.0001217,
    "INCLINATION": 53.1567,
    "RA_OF_ASC_NODE": 234.714,
    "ARG_OF_PERICENTER": 157.0803,
    "MEAN_ANOMALY": 203.0269,
    "EPHEMERIS_TYPE": 0,
    "CLASSIFICATION_TYPE": "U",
    "NORAD_CAT_ID": 61940,
    "ELEMENT_SET_NO": 999,
    "REV_AT_EPOCH": 5812,
    "BSTAR": 0.0011777,
    "MEAN_MOTION_DOT": 0.0014512,
    "MEAN_MOTION_DDOT": 0.0,
    "TLE_LINE1": "1 61940U 24209B   25315.27686694  .00145120  00000+0  11777-2 0  9998",
    "TLE_LINE2": "2 61940  53.1567 234.7140 0001217 157.0803 203.0269 15.69794227 58125",
    "COMMENT": "Grouped by shell and plane from TLE"
  },
  {
    "OBJECT_NAME": "STARLINK-11353 [DTC]",
    "OBJECT_ID": "24209C",
    "EPOCH": "2025-11-11T06:31:37.483104",
    "MEAN_MOTION": 15.69814862,
    "ECCENTRICITY": 8.05e-05,
    "INCLINATION": 53.1572,
    "RA_OF_ASC_NODE": 234.6826,
    "ARG_OF_PERICENTER": 68.2821,
    "MEAN_ANOMALY": 291.8282,
    "EPHEMERIS_TYPE": 0,
    "CLASSIFICATION_TYPE": "U",
    "NORAD_CAT_ID": 61941,
    "ELEMENT_SET_NO": 999,
    "REV_AT_EPOCH": 5808,
    "BSTAR": 0.0019055,
    "MEAN_MOTION_DOT": 0.00238044,
    "MEAN_MOTION_DDOT": 0.0,
    "TLE_LINE1": "1 61941U 24209C   25315.27196161  .00238044  00000+0  19055-2 0  9999",
    "TLE_LINE2": "2 61941  53.1572 234.6826 0000805  68.2821 291.8282 15.69814862 58080",
    "COMMENT": "Grouped by shell and plane from TLE"
  },
  {
    "OBJECT_NAME": "STARLINK-11320 [DTC]",
    "OBJECT_ID": "24209D",
    "EPOCH": "2025-11-11T03:21:20.963808",
    "MEAN_MOTION": 15.69779851,
    "ECCENTRICITY": 0.0001511,
    "INCLINATION": 53.1567,
    "RA_OF_ASC_NODE": 236.0118,
    "ARG_OF_PERICENTER": 116.2938,
    "MEAN_ANOMALY": 243.8235,
    "EPHEMERIS_TYPE": 0,
    "CLASSIFICATION_TYPE": "U",
    "NORAD_CAT_ID": 61942,
    "ELEMENT_SET_NO": 999,
    "REV_AT_EPOCH": 5805,
    "BSTAR": 0.0015229000000000002,
    "MEAN_MOTION_DOT": 0.00188707,
    "MEAN_MOTION_DDOT": 0.0,
    "TLE_LINE1": "1 61942U 24209D   25315.13982597  .00188707  00000+0  15229-2 0  9990",
    "TLE_LINE2": "2 61942  53.1567 236.0118 0001511 116.2938 243.8235 15.69779851 58053",
    "COMMENT": "Grouped by shell and plane from TLE"
  },
  {
    "OBJECT_NAME": "STARLINK-11425 [DTC]",
    "OBJECT_ID": "24209E",
    "EPOCH": "2025-11-11T06:17:38.885568",
    "MEAN_MOTION": 15.69807031,
    "ECCENTRICITY": 0.0001164,
    "INCLINATION": 53.1568,
    "RA_OF_ASC_NODE": 235.3493,
    "ARG_OF_PERICENTER": 128.5276,
    "MEAN_ANOMALY": 231.5847,
    "EPHEMERIS_TYPE": 0,
    "CLASSIFICATION_TYPE": "U",
    "NORAD_CAT_ID": 61943,
    "ELEMENT_SET_NO": 999,
    "REV_AT_EPOCH": 5807,
    "BSTAR": 0.0017569999999999999,
    "MEAN_MOTION_DOT": 0.00218851,
    "MEAN_MOTION_DDOT": 0.0,
    "TLE_LINE1": "1 61943U 24209E   25315.26225562  .00218851  00000+0  17570-2 0  9992",
    "TLE_LINE2": "2 61943  53.1568 235.3493 0001164 128.5276 231.5847 15.69807031 58075",
    "COMMENT": "Grouped by shell and plane from TLE"
  },
  {
    "OBJECT_NAME": "STARLINK-11422 [DTC]",
    "OBJECT_ID": "24209F",
    "EPOCH": "2025-11-11T06:10:35.040000",
    "MEAN_MOTION": 15.69804297,
    "ECCENTRICITY": 0.0001157,
    "INCLINATION": 53.1567,
    "RA_OF_ASC_NODE": 235.3188,
    "ARG_OF_PERICENTER": 95.6968,
    "MEAN_ANOMALY": 264.4182,
    "EPHEMERIS_TYPE": 0,
    "CLASSIFICATION_TYPE": "U",
    "NORAD_CAT_ID": 61944,
    "ELEMENT_SET_NO": 999,
    "REV_AT_EPOCH": 5807,
    "BSTAR": 0.0018507000000000003,
    "MEAN_MOTION_DOT": 0.00230876,
    "MEAN_MOTION_DDOT": 0.0,
    "TLE_LINE1": "1 61944U 24209F   25315.25735000  .00230876  00000+0  18507-2 0  9997",
    "TLE_LINE2": "2 61944  53.1567 235.3188 0001157  95.6968 264.4182 15.69804297 58078",
    "COMMENT": "Grouped by shell and plane from TLE"
  },
  {
    "OBJECT_NAME": "STARLINK-11421 [DTC]",
    "OBJECT_ID": "24209G",
    "EPOCH": "2025-11-11T06:03:31.489056",
    "MEAN_MOTION": 15.69860742,
    "ECCENTRICITY": 0.0001531,
    "INCLINATION": 53.1564,
    "RA_OF_ASC_NODE": 235.2864,
    "ARG_OF_PERICENTER": 82.2573,
    "MEAN_ANOMALY": 277.8619,
    "EPHEMERIS_TYPE": 0,
    "CLASSIFICATION_TYPE": "U",
    "NORAD_CAT_ID": 61945,
    "ELEMENT_SET_NO": 999,
    "REV_AT_EPOCH": 5807,
    "BSTAR": 0.0022157,
    "MEAN_MOTION_DOT": 0.00278796,
    "MEAN_MOTION_DDOT": 0.0,
    "TLE_LINE1": "1 61945U 24209G   25315.25244779  .00278796  00000+0  22157-2 0  9995",
    "TLE_LINE2": "2 61945  53.1564 235.2864 0001531  82.2573 277.8619 15.69860742 58076",
    "COMMENT": "Grouped by shell and plane from TLE"
  },
  {
    "OBJECT_NAME": "STARLINK-11410 [DTC]",
    "OBJECT_ID": "24209H",
    "EPOCH": "2025-11-11T05:56:27.233088",
    "MEAN_MOTION": 15.69793281,
    "ECCENTRICITY": 0.0001176,
    "INCLINATION": 53.1576,
    "RA_OF_ASC_NODE": 235.2521,
    "ARG_OF_PERICENTER": 128.1434,
    "MEAN_ANOMALY": 231.969,
    "EPHEMERIS_TYPE": 0,
    "CLASSIFICATION_TYPE": "U",
    "NORAD_CAT_ID": 61946,
    "ELEMENT_SET_NO": 999,
    "REV_AT_EPOCH": 5811,
    "BSTAR": 0.0013059000000000002,
    "MEAN_MOTION_DOT": 0.00161286,
    "MEAN_MOTION_DDOT": 0.0,
    "TLE_LINE1": "1 61946U 24209H   25315.24753742  .00161286  00000+0  13059-2 0  9996",
    "TLE_LINE2": "2 61946  53.1576 235.2521 0001176 128.1434 231.9690 15.69793281 58119",
    "COMMENT": "Grouped by shell and plane from TLE"
  },
  {
    "OBJECT_NAME": "STARLINK-11390 [DTC]",
    "OBJECT_ID": "24209J",
    "EPOCH": "2025-11-11T05:49:23.746944",
    "MEAN_MOTION": 15.69808453,
    "ECCENTRICITY": 0.0001314,
    "INCLINATION": 53.1573,
    "RA_OF_ASC_NODE": 235.2194,
    "ARG_OF_PERICENTER": 77.5354,
    "MEAN_ANOMALY": 282.5811,
    "EPHEMERIS_TYPE": 0,
    "CLASSIFICATION_TYPE": "U",
    "NORAD_CAT_ID": 61947,
    "ELEMENT_SET_NO": 999,
    "REV_AT_EPOCH": 5811,
    "BSTAR": 0.0019081,
    "MEAN_MOTION_DOT": 0.00238311,
    "MEAN_MOTION_DDOT": 0.0,
    "TLE_LINE1": "1 61947U 24209J   25315.24263596  .00238311  00000+0  19081-2 0  9995",
    "TLE_LINE2": "2 61947  53.1573 235.2194 0001314  77.5354 282.5811 15.69808453 58110",
    "COMMENT": "Grouped by shell and plane from TLE"
  },
  {
    "OBJECT_NAME": "STARLINK-11414 [DTC]",
    "OBJECT_ID": "24209K",
    "EPOCH": "2025-11-11T03:49:27.638688",
    "MEAN_MOTION": 15.69720824,
    "ECCENTRICITY": 0.0001248,
    "INCLINATION": 53.1564,
    "RA_OF_ASC_NODE": 235.4053,
    "ARG_OF_PERICENTER": 78.3262,
    "MEAN_ANOMALY": 281.7895,
    "EPHEMERIS_TYPE": 0,
    "CLASSIFICATION_TYPE": "U",
    "NORAD_CAT_ID": 61948,
    "ELEMENT_SET_NO": 999,
    "REV_AT_EPOCH": 5810,
    "BSTAR": 0.0012163,
    "MEAN_MOTION_DOT": 0.00149509,
    "MEAN_MOTION_DDOT": 0.0,
    "TLE_LINE1": "1 61948U 24209K   25315.15934767  .00149509  00000+0  12163-2 0  9995",
    "TLE_LINE2": "2 61948  53.1564 235.4053 0001248  78.3262 281.7895 15.69720824 58107",
    "COMMENT": "Grouped by shell and plane from TLE"
  },
  {
    "OBJECT_NAME": "STARLINK-11424 [DTC]",
    "OBJECT_ID": "24209L",
    "EPOCH": "2025-11-11T03:56:31.348608",
    "MEAN_MOTION": 15.69786205,
    "ECCENTRICITY": 0.0001462,
    "INCLINATION": 53.1572,
    "RA_OF_ASC_NODE": 235.4369,
    "ARG_OF_PERICENTER": 101.4511,
    "MEAN_ANOMALY": 258.6671,
    "EPHEMERIS_TYPE": 0,
    "CLASSIFICATION_TYPE": "U",
    "NORAD_CAT_ID": 61949,
    "ELEMENT_SET_NO": 999,
    "REV_AT_EPOCH": 5806,
    "BSTAR": 0.0018775,
    "MEAN_MOTION_DOT": 0.00234146,
    "MEAN_MOTION_DDOT": 0.0,
    "TLE_LINE1": "1 61949U 24209L   25315.16425172  .00234146  00000+0  18775-2 0  9999",
    "TLE_LINE2": "2 61949  53.1572 235.4369 0001462 101.4511 258.6671 15.69786205 58065",
    "COMMENT": "Grouped by shell and plane from TLE"
  }
]